{
"type": "FeatureCollection",
"name": "gt_region",
"crs": { "type": "name", "properties": { "name": "urn:ogc:def:crs:EPSG::32617" } },
"features": [
{ "type": "Feature", "properties": { "id": 1 }, "geometry": { "type": "MultiPolygon", "coordinates": [ [ [ [ 572303.62994034239091, 2845408.778914358466864 ], [ 572323.20989648217801, 2845407.92761191772297 ], [ 572350.451574589824304, 2845394.306772863958031 ], [ 572402.381023482535966, 2845373.875514282844961 ], [ 572434.730516235344112, 2845368.767699637915939 ], [ 572489.2138724506367, 2845358.552070347592235 ], [ 572540.292018902371638, 2845356.849465465638787 ], [ 572600.734492203686386, 2845354.295558142941445 ], [ 572654.366545978118666, 2845361.957280111033469 ], [ 572694.37776069866959, 2845368.767699637915939 ], [ 572706.295994870830327, 2845328.756484917365015 ], [ 572720.768136365455575, 2845309.176528777461499 ], [ 572726.727253451477736, 2845294.704387282952666 ], [ 572766.738468172145076, 2845253.841870121192187 ], [ 572783.764516989467666, 2845249.585357916541398 ], [ 572826.329639032599516, 2845212.128050518687814 ], [ 572901.244253828539513, 2845170.414230916183442 ], [ 572936.998956344905309, 2845144.023855249397457 ], [ 572967.645844215992838, 2845121.038689346518368 ], [ 572972.75365886115469, 2845094.648313679732382 ], [ 572975.307566183735617, 2845064.001425808295608 ], [ 572988.077102796640247, 2845032.503235496580601 ], [ 572999.144034527940676, 2845001.856347625609487 ], [ 573018.511165057425387, 2844963.122086566407233 ], [ 573034.898737044073641, 2844936.51888528931886 ], [ 573055.968472455395386, 2844906.084823028184474 ], [ 573073.065463142818771, 2844889.910076651722193 ], [ 573093.496721723582596, 2844852.45276925386861 ], [ 571693.104206503136083, 2843581.741992525290698 ], [ 571679.057716228649952, 2843621.753207246307284 ], [ 571649.971549499081448, 2844347.346654342487454 ], [ 571888.336232940899208, 2844366.075308041181415 ], [ 571896.281722388928756, 2844443.827597639989108 ], [ 571937.569890770828351, 2844566.415149123873562 ], [ 571988.648037222563289, 2844675.381861554458737 ], [ 572009.079295803327113, 2844703.049190882593393 ], [ 572055.475278830388561, 2844762.214710522443056 ], [ 572096.763447212288156, 2844829.041952130384743 ], [ 572122.302520438330248, 2844881.397052243351936 ], [ 572137.625964373815805, 2844934.177803576923907 ], [ 572143.159430239349604, 2844969.506854872684926 ], [ 572149.118547325371765, 2844998.876789082307369 ], [ 572150.821152207092382, 2845017.605442781001329 ], [ 572148.267244884511456, 2845038.888003802858293 ], [ 572140.179871696280316, 2845100.18177954480052 ], [ 572138.051615594187751, 2845158.921647964511067 ], [ 572136.774661932955496, 2845207.020235873293132 ], [ 572138.477266814676113, 2845234.261913981288671 ], [ 572161.036781497532502, 2845298.960899486672133 ], [ 572197.642786454642192, 2845326.628228814806789 ], [ 572213.817532831104472, 2845346.208184954710305 ], [ 572229.992279207450338, 2845362.382931331172585 ], [ 572250.423537788214162, 2845377.280724046286196 ], [ 572271.280447589349933, 2845396.009377745445818 ], [ 572298.096474476507865, 2845407.076309476513416 ], [ 572303.62994034239091, 2845408.778914358466864 ] ] ] ] } }
]
}
